{
    "links": {
        "self": "http://www.neowsapp.com/rest/v1/neo/3788160?api_key=iIulBulltgU6a56xZRHN4H3l9WmuAYTsLGpBGhQ2"
    },
    "id": "3788160",
    "neo_reference_id": "3788160",
    "name": "(2017 UK44)",
    "designation": "2017 UK44",
    "nasa_jpl_url": "http://ssd.jpl.nasa.gov/sbdb.cgi?sstr=3788160",
    "absolute_magnitude_h": 25.1,
    "estimated_diameter": {
        "kilometers": {
            "estimated_diameter_min": 0.0253837029,
            "estimated_diameter_max": 0.0567596853
        },
        "meters": {
            "estimated_diameter_min": 25.3837029364,
            "estimated_diameter_max": 56.7596852866
        },
        "miles": {
            "estimated_diameter_min": 0.0157726969,
            "estimated_diameter_max": 0.0352688224
        },
        "feet": {
            "estimated_diameter_min": 83.279867942,
            "estimated_diameter_max": 186.2194458756
        }
    },
    "is_potentially_hazardous_asteroid": false,
    "close_approach_data": [
        {
            "close_approach_date": "2017-10-27",
            "close_approach_date_full": "2017-Oct-27 21:16",
            "epoch_date_close_approach": 1509138960000,
            "relative_velocity": {
                "kilometers_per_second": "10.1586390406",
                "kilometers_per_hour": "36571.1005460452",
                "miles_per_hour": "22723.8596698468"
            },
            "miss_distance": {
                "astronomical": "0.0334310115",
                "lunar": "13.0046634735",
                "kilometers": "5001208.112345505",
                "miles": "3107606.619377769"
            },
            "orbiting_body": "Earth"
        }
    ],
    "orbital_data": {
        "orbit_id": "1",
        "orbit_determination_date": "2017-10-31 15:42:09",
        "first_observation_date": "2017-10-29",
        "last_observation_date": "2017-10-31",
        "data_arc_in_days": 2,
        "observations_used": 63,
        "orbit_uncertainty": "7",
        "minimum_orbit_intersection": ".0296462",
        "jupiter_tisserand_invariant": "4.039",
        "epoch_osculation": "2459000.5",
        "eccentricity": ".4078981548521026",
        "semi_major_axis": "1.720372971974067",
        "inclination": "14.96856770315582",
        "ascending_node_longitude": "33.83572965515685",
        "orbital_period": "824.1994934216626",
        "perihelion_distance": "1.018636011048417",
        "perihelion_argument": "349.2939983631658",
        "aphelion_distance": "2.422109932899717",
        "perihelion_time": "2458869.482340316021",
        "mean_anomaly": "57.22687026950404",
        "mean_motion": ".4367874560386596",
        "equinox": "J2000",
        "orbit_class": {
            "orbit_class_type": "AMO",
            "orbit_class_description": "Near-Earth asteroid orbits similar to that of 1221 Amor",
            "orbit_class_range": "1.017 AU < q (perihelion) < 1.3 AU"
        }
    },
    "is_sentry_object": false
}